STARLINK-31150          
1 58730U 24005C   25028.26517388  .00002395  00000+0  64587-4 0  9993
2 58730  43.0046 127.0906 0001969 269.5495  90.5136 15.40699069 61035
STARLINK-31204          
1 58731U 24005D   25028.70123550 -.00000936  00000+0 -54217-4 0  9997
2 58731  43.0025 263.6833 0001318 267.4230  92.6462 15.02527823 59488
STARLINK-31180          
1 58732U 24005E   25028.05164081  .00001454  00000+0  12264-3 0  9999
2 58732  43.0025 265.7130 0001219 270.1319  89.9384 15.02539087 59398
STARLINK-31164          
1 58733U 24005F   25028.35416507  .00001432  00000+0  12102-3 0  9993
2 58733  43.0033 264.5287 0001257 265.7834  94.2864 15.02544615 59432
STARLINK-31152          
1 58734U 24005G   25028.35084461  .00000269  00000+0  35009-4 0  9993
2 58734  43.0037 264.5048 0001504 267.8793  92.1877 15.02538528 59442
STARLINK-31157          
1 58735U 24005H   25028.67994666 -.00002537  00000+0 -17293-3 0  9992
2 58735  43.0029 262.6754 0001497 281.7232  78.3443 15.02510238 59499
STARLINK-31076          
1 58736U 24005J   25028.34418353 -.00000843  00000+0 -47357-4 0  9994
2 58736  43.0043 264.4518 0001032 277.7870  82.2855 15.02525597 59509
STARLINK-31101          
1 58737U 24005K   25028.33752587  .00000418  00000+0  46028-4 0  9994
2 58737  43.0029 264.4030 0002584 282.2685  77.7868 15.02536942 59454
STARLINK-31108          
1 58738U 24005L   25028.34085645 -.00001905  00000+0 -12605-3 0  9997
2 58738  43.0034 264.4282 0001122 269.7609  90.3105 15.02527178 59437
STARLINK-31042          
1 58739U 24005M   25028.66658903  .00008507  00000+0  64454-3 0  9998
2 58739  43.0010 262.5711 0001038 288.8471  71.2258 15.02506714 59499
STARLINK-31159          
1 58740U 24005N   25028.33086543  .00001470  00000+0  12385-3 0  9997
2 58740  43.0030 264.3514 0001389 269.4050  90.6633 15.02541518 59539
STARLINK-31148          
1 58741U 24005P   25027.99515304  .00000517  00000+0  53349-4 0  9998
2 58741  43.0021 266.1525 0001266 274.6668  85.4030 15.02535931 59398
STARLINK-31151          
1 58742U 24005Q   25028.05829919  .00000971  00000+0  86925-4 0  9997
2 58742  43.0015 265.7649 0001290 266.7154  93.3541 15.02538491 59493
STARLINK-31156          
1 58743U 24005R   25028.05497184  .00000603  00000+0  59671-4 0  9993
2 58743  43.0029 265.7387 0001202 269.2615  90.8090 15.02535527 59455
STARLINK-31167          
1 58744U 24005S   25028.76825423  .00006424  00000+0  25521-3 0  9996
2 58744  42.9992 197.8441 0001193 281.6221  78.4496 15.25911281 60318
STARLINK-31176          
1 58745U 24005T   25028.38069827  .00000683  00000+0  65626-4 0  9995
2 58745  43.0020 263.8826 0000975 272.0015  88.0716 15.02535932 59495
STARLINK-31181          
1 58746U 24005U   25028.76085553  .00013676  00000+0  47317-3 0  9994
2 58746  43.0017 196.9170 0004976 304.3632  55.6750 15.29745067 60322
STARLINK-31183          
1 58747U 24005V   25028.37405164  .00009649  00000+0  72825-3 0  9993
2 58747  43.0019 263.8343 0001302 274.3044  85.7649 15.02541599 59553
STARLINK-31165          
1 58748U 24005W   25028.37737385 -.00000738  00000+0 -39543-4 0  9990
2 58748  43.0028 263.8547 0001480 273.2255  86.8418 15.02529924 59452
STARLINK-31160          
1 58749U 24005X   25028.36736952  .00000955  00000+0  85738-4 0  9995
2 58749  43.0023 263.7147 0001350 268.6188  91.4500 15.02540988 59459
STARLINK-31179          
1 58750U 24005Y   25028.37072275  .00000270  00000+0  35093-4 0  9998
2 58750  43.0024 263.8051 0001372 270.0469  90.0216 15.02533357 59451
STARLINK-31127          
1 58765U 24011A   25028.27620044  .00001025  00000+0  90942-4 0  9996
2 58765  53.1607  67.8193 0001516 101.2969 258.8191 15.04927114 58618
STARLINK-31114          
1 58766U 24011B   25028.42500894  .00003083  00000+0  23474-3 0  9995
2 58766  53.1616  66.6241 0001546  96.3072 263.8094 15.04914928 58529
STARLINK-31140          
1 58767U 24011C   25028.40580257  .00002756  00000+0  21179-3 0  9991
2 58767  53.1603  67.2023 0000831  73.7718 286.3363 15.04930701 58631
STARLINK-31145          
1 58768U 24011D   25028.40258157  .00000467  00000+0  51985-4 0  9999
2 58768  53.1601  67.1840 0001624  92.6090 267.5086 15.04930660 58637
STARLINK-31146          
1 58769U 24011E   25028.53111763  .00005898  00000+0  43111-3 0  9999
2 58769  53.1590  66.5609 0001415  89.8257 270.2895 15.04920952 58656
STARLINK-31143          
1 58770U 24011F   25028.52789641 -.00002709  00000+0 -16995-3 0  9996
2 58770  53.1606  66.5426 0001360  86.7179 273.3966 15.04918879 58659
STARLINK-31135          
1 58771U 24011G   25028.39185524  .00001549  00000+0  12756-3 0  9992
2 58771  53.1604  67.1145 0001429  94.4948 265.6205 15.04927929 58633
STARLINK-31136          
1 58772U 24011H   25028.25581546  .00005976  00000+0  43621-3 0  9995
2 58772  53.1582  67.6905 0001249  81.6195 278.4936 15.04950155 58618
STARLINK-31073          
1 58773U 24011J   25028.38542036  .00003202  00000+0  24288-3 0  9999
2 58773  53.1597  67.0817 0001480  92.1663 267.9496 15.04937813 58514
STARLINK-31122          
1 58774U 24011K   25028.38219490  .00000992  00000+0  88675-4 0  9999
2 58774  53.1605  67.0566 0001537  90.5528 269.5637 15.04932055 58632
STARLINK-31123          
1 58775U 24011L   25028.37897125 -.00000992  00000+0 -49885-4 0  9998
2 58775  53.1603  67.0370 0001501  93.7389 266.3772 15.04939636 58508
STARLINK-31117          
1 58776U 24011M   25028.37576003 -.00000887  00000+0 -42544-4 0  9996
2 58776  53.1611  67.0193 0001812  86.4977 273.6220 15.04938425 58636
STARLINK-31132          
1 58777U 24011N   25028.24511526  .00003200  00000+0  12012-3 0  9998
2 58777  53.1615   6.7840 0001275  95.0431 265.0715 15.30200956 59482
STARLINK-31120          
1 58778U 24011P   25028.09938467  .00000977  00000+0  87610-4 0  9994
2 58778  53.1611  68.1382 0001535  94.4503 265.6662 15.04926835 58594
STARLINK-31142          
1 58779U 24011Q   25028.36932370  .00000448  00000+0  50663-4 0  9993
2 58779  53.1611  66.9792 0001554  85.6128 274.5039 15.04924315 58635
STARLINK-31099          
1 58781U 24011S   25028.42178488  .00004513  00000+0  33439-3 0  9993
2 58781  53.1603  66.5917 0001362  98.7069 261.4075 15.04927851 58644
STARLINK-31060          
1 58782U 24011T   25028.91667824  .00141027  00000+0  14616-2 0  9992
2 58782  53.1543 346.2861 0004200 355.7026 216.3752 15.63740310 59704
STARLINK-31047          
1 58783U 24011U   25028.38474645  .00019431  00000+0  13064-2 0  9990
2 58783  53.1594  66.3680 0001878  68.0807 292.0383 15.06780595 58648
STARLINK-31039          
1 58784U 24011V   25028.48497706  .00000132  00000+0  28584-4 0  9998
2 58784  53.1611  66.2729 0001575  92.3054 267.8116 15.04928792 58656
STARLINK-31034          
1 58785U 24011W   25028.24911259  .00085724  00000+0  21076-2 0  9994
2 58785  53.1599   2.5237 0006505  76.9153 283.2578 15.39911690 59545
STARLINK-31024          
1 58786U 24011X   25028.41534639  .00001193  00000+0  10266-3 0  9995
2 58786  53.1603  66.5486 0001536  91.1850 268.9316 15.04927642 58646
STARLINK-31189          
1 58787U 24012A   25028.41649917  .00003054  00000+0  12653-3 0  9993
2 58787  42.9982 291.5249 0000996 292.6010  67.4735 15.25914947 59280
STARLINK-31185          
1 58788U 24012B   25028.41424196 -.00000039  00000+0  83325-5 0  9991
2 58788  42.9929 291.5108 0000777  29.2819 330.8075 15.25906610 59286
STARLINK-31166          
1 58789U 24012C   25028.10264531  .00005888  00000+0  23483-3 0  9996
2 58789  43.0020 292.5920 0000932 257.9506 102.1240 15.25899169 59240
STARLINK-31187          
1 58790U 24012D   25028.40974252 -.00001323  00000+0 -40806-4 0  9990
2 58790  42.9956 291.4786 0000634 348.6599  11.4237 15.25885873 59295
STARLINK-31162          
1 58791U 24012E   25028.42779578 -.00002016  00000+0 -67248-4 0  9996
2 58791  42.9991 291.6072 0000937 258.2683 101.8063 15.25912759 59308
STARLINK-31184          
1 58793U 24012G   25028.07565316  .00013913  00000+0  54063-3 0  9998
2 58793  42.9989 293.2819 0001102 301.1751  58.8992 15.25914815 59232
STARLINK-31192          
1 58794U 24012H   25028.42316256  .00007172  00000+0  28369-3 0  9995
2 58794  43.0016 290.7016 0000850 295.9948  64.0815 15.25914679 59291
STARLINK-31161          
1 58795U 24012J   25028.13660766  .00005742  00000+0  22951-3 0  9994
2 58795  43.0000 292.8783 0000593 274.2272  85.8511 15.25859653 59253
STARLINK-31195          
1 58796U 24012K   25028.13430979  .00003365  00000+0  13839-3 0  9990
2 58796  42.9989 292.8606 0001544 262.9898  97.0778 15.25913301 59247
STARLINK-31193          
1 58797U 24012L   25028.06659244  .00001179  00000+0  54896-4 0  9991
2 58797  42.9979 293.2137 0001034 280.8271  79.2463 15.25912472 59239
STARLINK-31168          
1 58798U 24012M   25028.12978863 -.00000241  00000+0  63137-6 0  9990
2 58798  42.9990 292.8270 0001433 307.3132  52.7589 15.25915262 59246
STARLINK-31191          
1 58800U 24012P   25028.12752166  .00001536  00000+0  68570-4 0  9991
2 58800  42.9995 292.8072 0001902 254.4212 105.6429 15.25910705 59245
STARLINK-31170          
1 58801U 24012Q   25028.77984317  .00001800  00000+0  78660-4 0  9993
2 58801  43.0001 289.0991 0001174 269.7068  90.3649 15.25905755 59358
STARLINK-31173          
1 58802U 24012R   25028.04083613  .00047085  00000+0  10505-2 0  9990
2 58802  43.0033 259.5556 0015608 261.5539  98.3550 15.42696539 59617
STARLINK-31141          
1 58803U 24012S   25028.44574233 -.00016390  00000+0 -61664-3 0  9998
2 58803  42.9989 290.8839 0000646 306.7231  53.3560 15.25990568 59303
STARLINK-31188          
1 58804U 24012T   25028.44802387  .00004098  00000+0  16634-3 0  9990
2 58804  42.9992 290.9060 0001334 280.8100  79.2601 15.25921228 59295
STARLINK-31138          
1 58806U 24012V   25028.42088345  .00001868  00000+0  81220-4 0  9996
2 58806  43.0021 290.6829 0001191 292.1601  67.9123 15.25917349 59309
